{"type": "FeatureCollection", "features": [ {"type": "Feature", "properties": {"norad_id": 34529, "name": "IRIDIUM 33 DEB", "group": "iridium-33-debris", "lat": 39.28430128660548, "lon": 34.46936102116514, "alt_km": 754.9684562348193, "timestamp": "2025-12-21T22:41:41.844475+00:00", "meta": {"OBJECT_NAME": "IRIDIUM 33 DEB", "OBJECT_ID": "1997-051HW", "EPOCH": "2025-12-21T09:10:35.665536", "MEAN_MOTION": 14.4062226, "ECCENTRICITY": 0.00057974, "INCLINATION": 86.3634, "RA_OF_ASC_NODE": 31.7273, "ARG_OF_PERICENTER": 151.7059, "MEAN_ANOMALY": 208.4457, "EPHEMERIS_TYPE": 0, "CLASSIFICATION_TYPE": "U", "NORAD_CAT_ID": 34529, "ELEMENT_SET_NO": 999, "REV_AT_EPOCH": 88266, "BSTAR": 9.6722833e-05, "MEAN_MOTION_DOT": 3.28e-06, "MEAN_MOTION_DDOT": 0}, "tle": {"line1": "1 34529U 97051HW  25355.38235724  .00000328  00000+0  96723-4 0  9992", "line2": "2 34529  86.3634  31.7273 0005797 151.7059 208.4457 14.40622260882661"}}, "geometry": {"type": "Point", "coordinates": [34.46936102116514, 39.28430128660548]}}, {"type": "Feature", "properties": {"norad_id": 34538, "name": "IRIDIUM 33 DEB", "group": "iridium-33-debris", "lat": -55.18955394046252, "lon": -3.8518811573062934, "alt_km": 734.1003880850403, "timestamp": "2025-12-21T22:41:41.844485+00:00", "meta": {"OBJECT_NAME": "IRIDIUM 33 DEB", "OBJECT_ID": "1997-051JF", "EPOCH": "2025-12-21T12:00:19.123776", "MEAN_MOTION": 14.42695029, "ECCENTRICITY": 0.00320877, "INCLINATION": 86.2759, "RA_OF_ASC_NODE": 1.7183, "ARG_OF_PERICENTER": 297.7157, "MEAN_ANOMALY": 215.1252, "EPHEMERIS_TYPE": 0, "CLASSIFICATION_TYPE": "U", "NORAD_CAT_ID": 34538, "ELEMENT_SET_NO": 999, "REV_AT_EPOCH": 87882, "BSTAR": 0.00071835416, "MEAN_MOTION_DOT": 2.423e-05, "MEAN_MOTION_DDOT": 0}, "tle": {"line1": "1 34538U 97051JF  25355.50022134  .00002423  00000+0  71835-3 0  9999", "line2": "2 34538  86.2759   1.7183 0032087 297.7157 215.1252 14.42695029878823"}}, "geometry": {"type": "Point", "coordinates": [-3.8518811573062934, -55.18955394046252]}}, {"type": "Feature", "properties": {"norad_id": 34540, "name": "IRIDIUM 33 DEB", "group": "iridium-33-debris", "lat": 5.871110954024529, "lon": -56.22295381839604, "alt_km": 652.4939140469814, "timestamp": "2025-12-21T22:41:41.844495+00:00", "meta": {"OBJECT_NAME": "IRIDIUM 33 DEB", "OBJECT_ID": "1997-051JH", "EPOCH": "2025-12-21T03:12:48.465792", "MEAN_MOTION": 14.7547443, "ECCENTRICITY": 0.00177108, "INCLINATION": 86.311, "RA_OF_ASC_NODE": 303.768, "ARG_OF_PERICENTER": 130.8204, "MEAN_ANOMALY": 246.4988, "EPHEMERIS_TYPE": 0, "CLASSIFICATION_TYPE": "U", "NORAD_CAT_ID": 34540, "ELEMENT_SET_NO": 999, "REV_AT_EPOCH": 89145, "BSTAR": 0.0010237596, "MEAN_MOTION_DOT": 7.004e-05, "MEAN_MOTION_DDOT": 0}, "tle": {"line1": "1 34540U 97051JH  25355.13389428  .00007004  00000+0  10238-2 0  9992", "line2": "2 34540  86.3110 303.7680 0017710 130.8204 246.4988 14.75474430891455"}}, "geometry": {"type": "Point", "coordinates": [-56.22295381839604, 5.871110954024529]}}, {"type": "Feature", "properties": {"norad_id": 34648, "name": "IRIDIUM 33 DEB", "group": "iridium-33-debris", "lat": -20.42382773701479, "lon": 99.57555679713647, "alt_km": 811.4413402190667, "timestamp": "2025-12-21T22:41:41.844505+00:00", "meta": {"OBJECT_NAME": "IRIDIUM 33 DEB", "OBJECT_ID": "1997-051JZ", "EPOCH": "2025-12-21T01:19:00.379200", "MEAN_MOTION": 14.11717804, "ECCENTRICITY": 0.01800717, "INCLINATION": 86.3908, "RA_OF_ASC_NODE": 278.5885, "ARG_OF_PERICENTER": 272.8374, "MEAN_ANOMALY": 85.2213, "EPHEMERIS_TYPE": 0, "CLASSIFICATION_TYPE": "U", "NORAD_CAT_ID": 34648, "ELEMENT_SET_NO": 999, "REV_AT_EPOCH": 85078, "BSTAR": 0.0043851239, "MEAN_MOTION_DOT": 9.319e-05, "MEAN_MOTION_DDOT": 0}, "tle": {"line1": "1 34648U 97051JZ  25355.05486550  .00009319  00000+0  43851-2 0  9994", "line2": "2 34648  86.3908 278.5885 0180071 272.8374  85.2213 14.11717804850787"}}, "geometry": {"type": "Point", "coordinates": [99.57555679713647, -20.42382773701479]}}, {"type": "Feature", "properties": {"norad_id": 34651, "name": "IRIDIUM 33 DEB", "group": "iridium-33-debris", "lat": 11.216419747431583, "lon": 137.3995883805018, "alt_km": 904.5691628170998, "timestamp": "2025-12-21T22:41:41.844515+00:00", "meta": {"OBJECT_NAME": "IRIDIUM 33 DEB", "OBJECT_ID": "1997-051KC", "EPOCH": "2025-12-19T16:44:48.420096", "MEAN_MOTION": 14.25922062, "ECCENTRICITY": 0.01422464, "INCLINATION": 86.2827, "RA_OF_ASC_NODE": 137.6175, "ARG_OF_PERICENTER": 181.9677, "MEAN_ANOMALY": 178.0974, "EPHEMERIS_TYPE": 0, "CLASSIFICATION_TYPE": "U", "NORAD_CAT_ID": 34651, "ELEMENT_SET_NO": 999, "REV_AT_EPOCH": 85995, "BSTAR": 0.0022061693, "MEAN_MOTION_DOT": 5.865e-05, "MEAN_MOTION_DDOT": 0}, "tle": {"line1": "1 34651U 97051KC  25353.69778264  .00005865  00000+0  22062-2 0  9995", "line2": "2 34651  86.2827 137.6175 0142246 181.9677 178.0974 14.25922062859957"}}, "geometry": {"type": "Point", "coordinates": [137.3995883805018, 11.216419747431583]}}, {"type": "Feature", "properties": {"norad_id": 34652, "name": "IRIDIUM 33 DEB", "group": "iridium-33-debris", "lat": -0.9997754988692767, "lon": 155.96607914810724, "alt_km": 687.5305831209489, "timestamp": "2025-12-21T22:41:41.844525+00:00", "meta": {"OBJECT_NAME": "IRIDIUM 33 DEB", "OBJECT_ID": "1997-051KD", "EPOCH": "2025-12-21T05:29:24.538272", "MEAN_MOTION": 14.62128423, "ECCENTRICITY": 0.0025487, "INCLINATION": 86.3314, "RA_OF_ASC_NODE": 336.221, "ARG_OF_PERICENTER": 267.1492, "MEAN_ANOMALY": 103.1146, "EPHEMERIS_TYPE": 0, "CLASSIFICATION_TYPE": "U", "NORAD_CAT_ID": 34652, "ELEMENT_SET_NO": 999, "REV_AT_EPOCH": 88608, "BSTAR": 0.00068722, "MEAN_MOTION_DOT": 3.491e-05, "MEAN_MOTION_DDOT": 0}, "tle": {"line1": "1 34652U 97051KD  25355.22875623  .00003491  00000+0  68722-3 0  9991", "line2": "2 34652  86.3314 336.2210 0025487 267.1492 103.1146 14.62128423886080"}}, "geometry": {"type": "Point", "coordinates": [155.96607914810724, -0.9997754988692767]}}, {"type": "Feature", "properties": {"norad_id": 34690, "name": "IRIDIUM 33 DEB", "group": "iridium-33-debris", "lat": 7.083983033040918, "lon": -147.46114341156675, "alt_km": 718.031311937887, "timestamp": "2025-12-21T22:41:41.844535+00:00", "meta": {"OBJECT_NAME": "IRIDIUM 33 DEB", "OBJECT_ID": "1997-051KM", "EPOCH": "2025-12-21T02:14:02.861088", "MEAN_MOTION": 14.55122739, "ECCENTRICITY": 0.00098763, "INCLINATION": 86.3773, "RA_OF_ASC_NODE": 33.3605, "ARG_OF_PERICENTER": 1.7251, "MEAN_ANOMALY": 27.9675, "EPHEMERIS_TYPE": 0, "CLASSIFICATION_TYPE": "U", "NORAD_CAT_ID": 34690, "ELEMENT_SET_NO": 999, "REV_AT_EPOCH": 88216, "BSTAR": 0.00028932758, "MEAN_MOTION_DOT": 1.27e-05, "MEAN_MOTION_DDOT": 0}, "tle": {"line1": "1 34690U 97051KM  25355.09308867  .00001270  00000+0  28933-3 0  9992", "line2": "2 34690  86.3773  33.3605 0009876   1.7251  27.9675 14.55122739882164"}}, "geometry": {"type": "Point", "coordinates": [-147.46114341156675, 7.083983033040918]}}, {"type": "Feature", "properties": {"norad_id": 34693, "name": "IRIDIUM 33 DEB", "group": "iridium-33-debris", "lat": 32.93942870511697, "lon": 116.84403216378593, "alt_km": 476.6951463171072, "timestamp": "2025-12-21T22:41:41.844546+00:00", "meta": {"OBJECT_NAME": "IRIDIUM 33 DEB", "OBJECT_ID": "1997-051KQ", "EPOCH": "2025-12-21T14:58:16.935168", "MEAN_MOTION": 15.29927761, "ECCENTRICITY": 0.00111824, "INCLINATION": 86.3053, "RA_OF_ASC_NODE": 299.4039, "ARG_OF_PERICENTER": 37.1578, "MEAN_ANOMALY": 138.3014, "EPHEMERIS_TYPE": 0, "CLASSIFICATION_TYPE": "U", "NORAD_CAT_ID": 34693, "ELEMENT_SET_NO": 999, "REV_AT_EPOCH": 89050, "BSTAR": 0.0042681341, "MEAN_MOTION_DOT": 0.00125697, "MEAN_MOTION_DDOT": 0}, "tle": {"line1": "1 34693U 97051KQ  25355.62380712  .00125697  00000+0  42681-2 0  9998", "line2": "2 34693  86.3053 299.4039 0011182  37.1578 138.3014 15.29927761890503"}}, "geometry": {"type": "Point", "coordinates": [116.84403216378593, 32.93942870511697]}}, {"type": "Feature", "properties": {"norad_id": 34696, "name": "IRIDIUM 33 DEB", "group": "iridium-33-debris", "lat": -70.13782039576154, "lon": 12.58611670198797, "alt_km": 729.2277805026988, "timestamp": "2025-12-21T22:41:41.844556+00:00", "meta": {"OBJECT_NAME": "IRIDIUM 33 DEB", "OBJECT_ID": "1997-051KT", "EPOCH": "2025-12-21T13:45:49.664736", "MEAN_MOTION": 14.65474672, "ECCENTRICITY": 0.00738227, "INCLINATION": 86.1828, "RA_OF_ASC_NODE": 23.41, "ARG_OF_PERICENTER": 137.7678, "MEAN_ANOMALY": 349.4039, "EPHEMERIS_TYPE": 0, "CLASSIFICATION_TYPE": "U", "NORAD_CAT_ID": 34696, "ELEMENT_SET_NO": 999, "REV_AT_EPOCH": 86802, "BSTAR": 0.0032005825, "MEAN_MOTION_DOT": 0.00018092, "MEAN_MOTION_DDOT": 0}, "tle": {"line1": "1 34696U 97051KT  25355.57349149  .00018092  00000+0  32006-2 0  9994", "line2": "2 34696  86.1828  23.4100 0073822 137.7678 349.4039 14.65474672868026"}}, "geometry": {"type": "Point", "coordinates": [12.58611670198797, -70.13782039576154]}}, {"type": "Feature", "properties": {"norad_id": 34765, "name": "IRIDIUM 33 DEB", "group": "iridium-33-debris", "lat": 76.4787265532162, "lon": 44.25556408445559, "alt_km": 752.386257535386, "timestamp": "2025-12-21T22:41:41.844566+00:00", "meta": {"OBJECT_NAME": "IRIDIUM 33 DEB", "OBJECT_ID": "1997-051LJ", "EPOCH": "2025-12-21T13:03:17.424288", "MEAN_MOTION": 14.40485449, "ECCENTRICITY": 0.0016466, "INCLINATION": 86.3382, "RA_OF_ASC_NODE": 28.9833, "ARG_OF_PERICENTER": 181.3076, "MEAN_ANOMALY": 334.2319, "EPHEMERIS_TYPE": 0, "CLASSIFICATION_TYPE": "U", "NORAD_CAT_ID": 34765, "ELEMENT_SET_NO": 999, "REV_AT_EPOCH": 87740, "BSTAR": 0.00029938314, "MEAN_MOTION_DOT": 9.73e-06, "MEAN_MOTION_DDOT": 0}, "tle": {"line1": "1 34765U 97051LJ  25355.54395167  .00000973  00000+0  29938-3 0  9999", "line2": "2 34765  86.3382  28.9833 0016466 181.3076 334.2319 14.40485449877403"}}, "geometry": {"type": "Point", "coordinates": [44.25556408445559, 76.4787265532162]}}]}